[
  {
    "name": "Olivia Smith",
    "address": "2375 Oak Ave",
    "city": "Chicago",
    "state_id": "IL",
    "state_name": "Illinois",
    "zip": 15995
  },
  {
    "name": "Chris Johnson",
    "address": "6032 Oak Ave",
    "city": "Chicago",
    "state_id": "IL",
    "state_name": "Illinois",
    "zip": 44226
  },
  {
    "name": "Emily Taylor",
    "address": "5205 Maple Dr",
    "city": "Philadelphia",
    "state_id": "NY",
    "state_name": "New York",
    "zip": 16256
  },
  {
    "name": "Jane Hall",
    "address": "6148 Washington Blvd",
    "city": "Los Angeles",
    "state_id": "NY",
    "state_name": "New York",
    "zip": 78511
  },
  {
    "name": "David Brown",
    "address": "9891 Washington Blvd",
    "city": "Houston",
    "state_id": "IL",
    "state_name": "Illinois",
    "zip": 15592
  },
  {
    "name": "Emily Johnson",
    "address": "6420 Main St",
    "city": "San Diego",
    "state_id": "IL",
    "state_name": "Illinois",
    "zip": 64859
  },
  {
    "name": "Jane Taylor",
    "address": "5954 Pine Rd",
    "city": "Los Angeles",
    "state_id": "PA",
    "state_name": "Pennsylvania",
    "zip": 50862
  },
  {
    "name": "Olivia Smith",
    "address": "9308 Main St",
    "city": "New York",
    "state_id": "PA",
    "state_name": "Pennsylvania",
    "zip": 93960
  },
  {
    "name": "Michael Lee",
    "address": "4706 2nd St",
    "city": "Houston",
    "state_id": "NY",
    "state_name": "New York",
    "zip": 43645
  },
  {
    "name": "Jane Anderson",
    "address": "8947 Main St",
    "city": "Houston",
    "state_id": "TX",
    "state_name": "Texas",
    "zip": 57763
  },
  {
    "name": "David Taylor",
    "address": "7538 Cedar St",
    "city": "Houston",
    "state_id": "NY",
    "state_name": "New York",
    "zip": 27263
  },
  {
    "name": "Emily Johnson",
    "address": "7936 Elm St",
    "city": "San Diego",
    "state_id": "CA",
    "state_name": "California",
    "zip": 63736
  },
  {
    "name": "Olivia Taylor",
    "address": "7923 Washington Blvd",
    "city": "Houston",
    "state_id": "CA",
    "state_name": "California",
    "zip": 47220
  },
  {
    "name": "David Anderson",
    "address": "2771 Oak Ave",
    "city": "Phoenix",
    "state_id": "IL",
    "state_name": "Illinois",
    "zip": 59479
  },
  {
    "name": "Michael Johnson",
    "address": "743 Pine Rd",
    "city": "Dallas",
    "state_id": "NY",
    "state_name": "New York",
    "zip": 37888
  },
  {
    "name": "Olivia Anderson",
    "address": "672 Main St",
    "city": "San Diego",
    "state_id": "CA",
    "state_name": "California",
    "zip": 24475
  },
  {
    "name": "Emma Johnson",
    "address": "688 Main St",
    "city": "Houston",
    "state_id": "CA",
    "state_name": "California",
    "zip": 81642
  },
  {
    "name": "David Walker",
    "address": "6890 Washington Blvd",
    "city": "Phoenix",
    "state_id": "AZ",
    "state_name": "Arizona",
    "zip": 51335
  },
  {
    "name": "Jane Walker",
    "address": "761 Oak Ave",
    "city": "San Diego",
    "state_id": "IL",
    "state_name": "Illinois",
    "zip": 94323
  },
  {
    "name": "Olivia Smith",
    "address": "9939 Washington Blvd",
    "city": "San Diego",
    "state_id": "CA",
    "state_name": "California",
    "zip": 34579
  },
  {
    "name": "Emily Walker",
    "address": "4379 Pine Rd",
    "city": "Chicago",
    "state_id": "CA",
    "state_name": "California",
    "zip": 43082
  },
  {
    "name": "Jane Hall",
    "address": "3545 Maple Dr",
    "city": "New York",
    "state_id": "TX",
    "state_name": "Texas",
    "zip": 35327
  },
  {
    "name": "Jane Hall",
    "address": "6703 Maple Dr",
    "city": "New York",
    "state_id": "TX",
    "state_name": "Texas",
    "zip": 63531
  },
  {
    "name": "Emma Walker",
    "address": "2649 Cedar St",
    "city": "San Diego",
    "state_id": "IL",
    "state_name": "Illinois",
    "zip": 71007
  },
  {
    "name": "Emily Anderson",
    "address": "9982 Pine Rd",
    "city": "Philadelphia",
    "state_id": "TX",
    "state_name": "Texas",
    "zip": 54901
  },
  {
    "name": "David Taylor",
    "address": "2188 Cedar St",
    "city": "Houston",
    "state_id": "TX",
    "state_name": "Texas",
    "zip": 64181
  },
  {
    "name": "Jane Smith",
    "address": "8854 2nd St",
    "city": "Houston",
    "state_id": "TX",
    "state_name": "Texas",
    "zip": 22478
  },
  {
    "name": "Jane Johnson",
    "address": "9647 2nd St",
    "city": "Chicago",
    "state_id": "AZ",
    "state_name": "Arizona",
    "zip": 66688
  },
  {
    "name": "Emma Lee",
    "address": "6979 Pine Rd",
    "city": "Los Angeles",
    "state_id": "CA",
    "state_name": "California",
    "zip": 28150
  },
  {
    "name": "Jane Taylor",
    "address": "6986 Maple Dr",
    "city": "Los Angeles",
    "state_id": "PA",
    "state_name": "Pennsylvania",
    "zip": 73691
  },
  {
    "name": "Emma Walker",
    "address": "6767 Pine Rd",
    "city": "Dallas",
    "state_id": "AZ",
    "state_name": "Arizona",
    "zip": 61284
  },
  {
    "name": "John Lee",
    "address": "1233 Cedar St",
    "city": "Los Angeles",
    "state_id": "AZ",
    "state_name": "Arizona",
    "zip": 94558
  },
  {
    "name": "Michael Johnson",
    "address": "3427 Washington Blvd",
    "city": "New York",
    "state_id": "IL",
    "state_name": "Illinois",
    "zip": 14373
  },
  {
    "name": "Jane Anderson",
    "address": "3132 Elm St",
    "city": "Philadelphia",
    "state_id": "CA",
    "state_name": "California",
    "zip": 54541
  },
  {
    "name": "Emma Smith",
    "address": "1782 Pine Rd",
    "city": "Los Angeles",
    "state_id": "PA",
    "state_name": "Pennsylvania",
    "zip": 96214
  },
  {
    "name": "David Lee",
    "address": "853 2nd St",
    "city": "Chicago",
    "state_id": "TX",
    "state_name": "Texas",
    "zip": 45655
  },
  {
    "name": "Emily Anderson",
    "address": "7312 Elm St",
    "city": "Phoenix",
    "state_id": "CA",
    "state_name": "California",
    "zip": 59166
  },
  {
    "name": "David Smith",
    "address": "4833 Oak Ave",
    "city": "Los Angeles",
    "state_id": "IL",
    "state_name": "Illinois",
    "zip": 74138
  },
  {
    "name": "Jane Walker",
    "address": "8926 2nd St",
    "city": "Chicago",
    "state_id": "PA",
    "state_name": "Pennsylvania",
    "zip": 16142
  },
  {
    "name": "David Walker",
    "address": "2895 Cedar St",
    "city": "Los Angeles",
    "state_id": "PA",
    "state_name": "Pennsylvania",
    "zip": 30506
  },
  {
    "name": "David Taylor",
    "address": "2092 Elm St",
    "city": "Los Angeles",
    "state_id": "TX",
    "state_name": "Texas",
    "zip": 57878
  },
  {
    "name": "Michael Lee",
    "address": "6329 Oak Ave",
    "city": "New York",
    "state_id": "TX",
    "state_name": "Texas",
    "zip": 44843
  },
  {
    "name": "John Brown",
    "address": "2783 2nd St",
    "city": "Philadelphia",
    "state_id": "CA",
    "state_name": "California",
    "zip": 34848
  },
  {
    "name": "David Walker",
    "address": "7070 Cedar St",
    "city": "Dallas",
    "state_id": "NY",
    "state_name": "New York",
    "zip": 20849
  },
  {
    "name": "Emma Taylor",
    "address": "4587 Pine Rd",
    "city": "New York",
    "state_id": "AZ",
    "state_name": "Arizona",
    "zip": 16304
  },
  {
    "name": "Emma Walker",
    "address": "8231 Maple Dr",
    "city": "Phoenix",
    "state_id": "IL",
    "state_name": "Illinois",
    "zip": 47911
  },
  {
    "name": "David Anderson",
    "address": "9502 Elm St",
    "city": "Houston",
    "state_id": "TX",
    "state_name": "Texas",
    "zip": 23858
  },
  {
    "name": "Emily Anderson",
    "address": "2047 Elm St",
    "city": "Dallas",
    "state_id": "IL",
    "state_name": "Illinois",
    "zip": 67562
  },
  {
    "name": "Jane Johnson",
    "address": "412 Elm St",
    "city": "New York",
    "state_id": "TX",
    "state_name": "Texas",
    "zip": 16980
  },
  {
    "name": "Michael Hall",
    "address": "7597 Maple Dr",
    "city": "Philadelphia",
    "state_id": "TX",
    "state_name": "Texas",
    "zip": 71062
  },
  {
    "name": "Emma Brown",
    "address": "6435 Pine Rd",
    "city": "Phoenix",
    "state_id": "AZ",
    "state_name": "Arizona",
    "zip": 99535
  },
  {
    "name": "Olivia Hall",
    "address": "7468 Pine Rd",
    "city": "Phoenix",
    "state_id": "CA",
    "state_name": "California",
    "zip": 94582
  },
  {
    "name": "Emma Johnson",
    "address": "5643 Elm St",
    "city": "New York",
    "state_id": "NY",
    "state_name": "New York",
    "zip": 39416
  },
  {
    "name": "John Smith",
    "address": "1025 Maple Dr",
    "city": "Phoenix",
    "state_id": "AZ",
    "state_name": "Arizona",
    "zip": 24152
  },
  {
    "name": "Michael Johnson",
    "address": "9850 Cedar St",
    "city": "Chicago",
    "state_id": "TX",
    "state_name": "Texas",
    "zip": 40160
  },
  {
    "name": "Olivia Lee",
    "address": "1302 Pine Rd",
    "city": "San Diego",
    "state_id": "TX",
    "state_name": "Texas",
    "zip": 98552
  },
  {
    "name": "Emma Lee",
    "address": "9887 Elm St",
    "city": "San Diego",
    "state_id": "TX",
    "state_name": "Texas",
    "zip": 94762
  },
  {
    "name": "Emma Hall",
    "address": "2501 Elm St",
    "city": "New York",
    "state_id": "IL",
    "state_name": "Illinois",
    "zip": 88428
  },
  {
    "name": "Emma Hall",
    "address": "3661 Cedar St",
    "city": "Philadelphia",
    "state_id": "IL",
    "state_name": "Illinois",
    "zip": 82662
  },
  {
    "name": "Michael Walker",
    "address": "4459 Main St",
    "city": "Phoenix",
    "state_id": "PA",
    "state_name": "Pennsylvania",
    "zip": 71979
  },
  {
    "name": "David Hall",
    "address": "9494 Pine Rd",
    "city": "New York",
    "state_id": "PA",
    "state_name": "Pennsylvania",
    "zip": 31190
  },
  {
    "name": "John Hall",
    "address": "1002 Elm St",
    "city": "Chicago",
    "state_id": "AZ",
    "state_name": "Arizona",
    "zip": 72687
  },
  {
    "name": "John Smith",
    "address": "3682 2nd St",
    "city": "Los Angeles",
    "state_id": "IL",
    "state_name": "Illinois",
    "zip": 69847
  },
  {
    "name": "Olivia Anderson",
    "address": "2310 2nd St",
    "city": "Phoenix",
    "state_id": "TX",
    "state_name": "Texas",
    "zip": 94548
  },
  {
    "name": "John Johnson",
    "address": "9607 Oak Ave",
    "city": "Phoenix",
    "state_id": "TX",
    "state_name": "Texas",
    "zip": 20253
  },
  {
    "name": "David Lee",
    "address": "1130 Oak Ave",
    "city": "Philadelphia",
    "state_id": "PA",
    "state_name": "Pennsylvania",
    "zip": 39721
  },
  {
    "name": "Olivia Lee",
    "address": "9775 Elm St",
    "city": "Houston",
    "state_id": "TX",
    "state_name": "Texas",
    "zip": 72408
  },
  {
    "name": "Michael Brown",
    "address": "272 Elm St",
    "city": "Phoenix",
    "state_id": "PA",
    "state_name": "Pennsylvania",
    "zip": 68008
  },
  {
    "name": "Olivia Smith",
    "address": "6002 Cedar St",
    "city": "Philadelphia",
    "state_id": "CA",
    "state_name": "California",
    "zip": 48237
  },
  {
    "name": "John Lee",
    "address": "6563 Pine Rd",
    "city": "Dallas",
    "state_id": "NY",
    "state_name": "New York",
    "zip": 93258
  },
  {
    "name": "Emily Johnson",
    "address": "8223 Oak Ave",
    "city": "New York",
    "state_id": "PA",
    "state_name": "Pennsylvania",
    "zip": 69632
  },
  {
    "name": "John Anderson",
    "address": "3787 Washington Blvd",
    "city": "Phoenix",
    "state_id": "NY",
    "state_name": "New York",
    "zip": 59740
  },
  {
    "name": "Emily Anderson",
    "address": "9768 Main St",
    "city": "Dallas",
    "state_id": "PA",
    "state_name": "Pennsylvania",
    "zip": 26772
  },
  {
    "name": "Olivia Lee",
    "address": "2874 Maple Dr",
    "city": "Phoenix",
    "state_id": "PA",
    "state_name": "Pennsylvania",
    "zip": 84214
  },
  {
    "name": "Emma Johnson",
    "address": "4230 Elm St",
    "city": "New York",
    "state_id": "IL",
    "state_name": "Illinois",
    "zip": 54651
  },
  {
    "name": "Emily Brown",
    "address": "4333 Main St",
    "city": "Dallas",
    "state_id": "IL",
    "state_name": "Illinois",
    "zip": 55619
  },
  {
    "name": "David Hall",
    "address": "1242 Main St",
    "city": "Chicago",
    "state_id": "PA",
    "state_name": "Pennsylvania",
    "zip": 76052
  },
  {
    "name": "David Brown",
    "address": "778 Maple Dr",
    "city": "San Diego",
    "state_id": "TX",
    "state_name": "Texas",
    "zip": 34808
  },
  {
    "name": "Emily Taylor",
    "address": "6781 Maple Dr",
    "city": "Houston",
    "state_id": "IL",
    "state_name": "Illinois",
    "zip": 15312
  },
  {
    "name": "Emily Smith",
    "address": "9340 Oak Ave",
    "city": "Chicago",
    "state_id": "PA",
    "state_name": "Pennsylvania",
    "zip": 29238
  },
  {
    "name": "John Taylor",
    "address": "8801 Washington Blvd",
    "city": "San Diego",
    "state_id": "AZ",
    "state_name": "Arizona",
    "zip": 63484
  },
  {
    "name": "Michael Walker",
    "address": "6240 Main St",
    "city": "San Diego",
    "state_id": "CA",
    "state_name": "California",
    "zip": 50018
  },
  {
    "name": "Emily Brown",
    "address": "197 Washington Blvd",
    "city": "Los Angeles",
    "state_id": "NY",
    "state_name": "New York",
    "zip": 87274
  },
  {
    "name": "Emma Hall",
    "address": "249 Main St",
    "city": "San Diego",
    "state_id": "NY",
    "state_name": "New York",
    "zip": 78973
  },
  {
    "name": "Michael Hall",
    "address": "992 2nd St",
    "city": "San Diego",
    "state_id": "IL",
    "state_name": "Illinois",
    "zip": 82411
  },
  {
    "name": "Olivia Smith",
    "address": "3407 Maple Dr",
    "city": "Los Angeles",
    "state_id": "NY",
    "state_name": "New York",
    "zip": 95083
  },
  {
    "name": "John Walker",
    "address": "9508 Cedar St",
    "city": "San Diego",
    "state_id": "AZ",
    "state_name": "Arizona",
    "zip": 14320
  },
  {
    "name": "Jane Taylor",
    "address": "6669 Oak Ave",
    "city": "Phoenix",
    "state_id": "AZ",
    "state_name": "Arizona",
    "zip": 60670
  },
  {
    "name": "Emma Anderson",
    "address": "1090 Oak Ave",
    "city": "Houston",
    "state_id": "IL",
    "state_name": "Illinois",
    "zip": 63376
  },
  {
    "name": "Emily Johnson",
    "address": "7916 Washington Blvd",
    "city": "Dallas",
    "state_id": "TX",
    "state_name": "Texas",
    "zip": 39636
  },
  {
    "name": "Jane Lee",
    "address": "6166 Cedar St",
    "city": "Los Angeles",
    "state_id": "CA",
    "state_name": "California",
    "zip": 99293
  },
  {
    "name": "Jane Walker",
    "address": "443 Maple Dr",
    "city": "Chicago",
    "state_id": "PA",
    "state_name": "Pennsylvania",
    "zip": 71011
  },
  {
    "name": "David Hall",
    "address": "8580 Oak Ave",
    "city": "Chicago",
    "state_id": "NY",
    "state_name": "New York",
    "zip": 55025
  },
  {
    "name": "Michael Hall",
    "address": "5120 Elm St",
    "city": "Chicago",
    "state_id": "TX",
    "state_name": "Texas",
    "zip": 93666
  },
  {
    "name": "Olivia Smith",
    "address": "1617 Oak Ave",
    "city": "Philadelphia",
    "state_id": "CA",
    "state_name": "California",
    "zip": 94759
  },
  {
    "name": "Emily Walker",
    "address": "7255 Main St",
    "city": "Houston",
    "state_id": "AZ",
    "state_name": "Arizona",
    "zip": 59153
  },
  {
    "name": "Emily Smith",
    "address": "7504 Main St",
    "city": "Houston",
    "state_id": "CA",
    "state_name": "California",
    "zip": 58994
  },
  {
    "name": "Olivia Walker",
    "address": "1077 2nd St",
    "city": "Dallas",
    "state_id": "IL",
    "state_name": "Illinois",
    "zip": 32657
  },
  {
    "name": "David Smith",
    "address": "6796 Cedar St",
    "city": "Houston",
    "state_id": "TX",
    "state_name": "Texas",
    "zip": 71986
  },
  {
    "name": "Chris Smith",
    "address": "2364 Elm St",
    "city": "Los Angeles",
    "state_id": "TX",
    "state_name": "Texas",
    "zip": 47117
  },
  {
    "name": "David Brown",
    "address": "8630 Washington Blvd",
    "city": "San Diego",
    "state_id": "AZ",
    "state_name": "Arizona",
    "zip": 99519
  },
  {
    "name": "John Johnson",
    "address": "5339 Elm St",
    "city": "Houston",
    "state_id": "IL",
    "state_name": "Illinois",
    "zip": 56214
  },
  {
    "name": "Emily Brown",
    "address": "3879 Maple Dr",
    "city": "Chicago",
    "state_id": "TX",
    "state_name": "Texas",
    "zip": 31921
  },
  {
    "name": "Michael Hall",
    "address": "2483 Maple Dr",
    "city": "New York",
    "state_id": "TX",
    "state_name": "Texas",
    "zip": 48467
  },
  {
    "name": "Michael Taylor",
    "address": "1881 Elm St",
    "city": "Los Angeles",
    "state_id": "CA",
    "state_name": "California",
    "zip": 63354
  },
  {
    "name": "John Walker",
    "address": "9284 Maple Dr",
    "city": "San Diego",
    "state_id": "AZ",
    "state_name": "Arizona",
    "zip": 25710
  },
  {
    "name": "Olivia Hall",
    "address": "5720 2nd St",
    "city": "Houston",
    "state_id": "PA",
    "state_name": "Pennsylvania",
    "zip": 44584
  },
  {
    "name": "Michael Hall",
    "address": "6809 Pine Rd",
    "city": "Chicago",
    "state_id": "NY",
    "state_name": "New York",
    "zip": 30106
  },
  {
    "name": "John Brown",
    "address": "4701 Cedar St",
    "city": "Phoenix",
    "state_id": "IL",
    "state_name": "Illinois",
    "zip": 86186
  },
  {
    "name": "David Smith",
    "address": "167 Main St",
    "city": "Philadelphia",
    "state_id": "PA",
    "state_name": "Pennsylvania",
    "zip": 10554
  },
  {
    "name": "Emma Smith",
    "address": "6170 2nd St",
    "city": "Phoenix",
    "state_id": "IL",
    "state_name": "Illinois",
    "zip": 58166
  },
  {
    "name": "John Johnson",
    "address": "7297 Main St",
    "city": "New York",
    "state_id": "NY",
    "state_name": "New York",
    "zip": 17729
  },
  {
    "name": "Emma Walker",
    "address": "208 Cedar St",
    "city": "Philadelphia",
    "state_id": "TX",
    "state_name": "Texas",
    "zip": 58763
  },
  {
    "name": "Olivia Brown",
    "address": "2750 2nd St",
    "city": "Phoenix",
    "state_id": "TX",
    "state_name": "Texas",
    "zip": 77741
  },
  {
    "name": "Chris Brown",
    "address": "2702 Pine Rd",
    "city": "Dallas",
    "state_id": "IL",
    "state_name": "Illinois",
    "zip": 96248
  },
  {
    "name": "John Hall",
    "address": "8223 Main St",
    "city": "New York",
    "state_id": "PA",
    "state_name": "Pennsylvania",
    "zip": 24474
  },
  {
    "name": "Emma Johnson",
    "address": "8626 Elm St",
    "city": "New York",
    "state_id": "PA",
    "state_name": "Pennsylvania",
    "zip": 15182
  },
  {
    "name": "Olivia Walker",
    "address": "6678 Cedar St",
    "city": "Los Angeles",
    "state_id": "PA",
    "state_name": "Pennsylvania",
    "zip": 36112
  },
  {
    "name": "Michael Johnson",
    "address": "6296 Maple Dr",
    "city": "Chicago",
    "state_id": "TX",
    "state_name": "Texas",
    "zip": 51374
  },
  {
    "name": "Michael Hall",
    "address": "7346 Oak Ave",
    "city": "Los Angeles",
    "state_id": "NY",
    "state_name": "New York",
    "zip": 62343
  },
  {
    "name": "Olivia Johnson",
    "address": "7612 Cedar St",
    "city": "San Diego",
    "state_id": "TX",
    "state_name": "Texas",
    "zip": 97078
  },
  {
    "name": "Chris Lee",
    "address": "8086 Elm St",
    "city": "Chicago",
    "state_id": "NY",
    "state_name": "New York",
    "zip": 12001
  },
  {
    "name": "Michael Walker",
    "address": "9428 Pine Rd",
    "city": "New York",
    "state_id": "PA",
    "state_name": "Pennsylvania",
    "zip": 74042
  },
  {
    "name": "Emily Lee",
    "address": "2892 Washington Blvd",
    "city": "Phoenix",
    "state_id": "PA",
    "state_name": "Pennsylvania",
    "zip": 25531
  },
  {
    "name": "David Lee",
    "address": "3492 Oak Ave",
    "city": "San Diego",
    "state_id": "AZ",
    "state_name": "Arizona",
    "zip": 92532
  },
  {
    "name": "David Walker",
    "address": "8128 Washington Blvd",
    "city": "Chicago",
    "state_id": "PA",
    "state_name": "Pennsylvania",
    "zip": 89880
  },
  {
    "name": "Emma Smith",
    "address": "3474 Main St",
    "city": "Houston",
    "state_id": "CA",
    "state_name": "California",
    "zip": 96823
  },
  {
    "name": "Jane Taylor",
    "address": "1903 2nd St",
    "city": "Phoenix",
    "state_id": "NY",
    "state_name": "New York",
    "zip": 19789
  },
  {
    "name": "David Lee",
    "address": "4868 2nd St",
    "city": "Los Angeles",
    "state_id": "AZ",
    "state_name": "Arizona",
    "zip": 13568
  },
  {
    "name": "Jane Taylor",
    "address": "7418 Cedar St",
    "city": "Los Angeles",
    "state_id": "TX",
    "state_name": "Texas",
    "zip": 97305
  },
  {
    "name": "Emily Johnson",
    "address": "2862 2nd St",
    "city": "San Diego",
    "state_id": "NY",
    "state_name": "New York",
    "zip": 40006
  },
  {
    "name": "Jane Walker",
    "address": "8044 Maple Dr",
    "city": "Philadelphia",
    "state_id": "PA",
    "state_name": "Pennsylvania",
    "zip": 42651
  },
  {
    "name": "David Hall",
    "address": "8058 Cedar St",
    "city": "New York",
    "state_id": "IL",
    "state_name": "Illinois",
    "zip": 29939
  },
  {
    "name": "Michael Lee",
    "address": "5500 Elm St",
    "city": "San Diego",
    "state_id": "CA",
    "state_name": "California",
    "zip": 58642
  },
  {
    "name": "David Brown",
    "address": "6208 Main St",
    "city": "Philadelphia",
    "state_id": "PA",
    "state_name": "Pennsylvania",
    "zip": 47304
  },
  {
    "name": "Emily Brown",
    "address": "401 2nd St",
    "city": "Philadelphia",
    "state_id": "NY",
    "state_name": "New York",
    "zip": 10299
  },
  {
    "name": "Michael Lee",
    "address": "6471 2nd St",
    "city": "Philadelphia",
    "state_id": "NY",
    "state_name": "New York",
    "zip": 79777
  },
  {
    "name": "Michael Smith",
    "address": "3797 Pine Rd",
    "city": "Houston",
    "state_id": "NY",
    "state_name": "New York",
    "zip": 52640
  },
  {
    "name": "Michael Lee",
    "address": "5059 Elm St",
    "city": "San Diego",
    "state_id": "AZ",
    "state_name": "Arizona",
    "zip": 49518
  },
  {
    "name": "Emily Taylor",
    "address": "7890 Cedar St",
    "city": "Houston",
    "state_id": "IL",
    "state_name": "Illinois",
    "zip": 76308
  },
  {
    "name": "Jane Walker",
    "address": "2455 Maple Dr",
    "city": "Phoenix",
    "state_id": "NY",
    "state_name": "New York",
    "zip": 24975
  },
  {
    "name": "Chris Johnson",
    "address": "9490 Main St",
    "city": "Dallas",
    "state_id": "AZ",
    "state_name": "Arizona",
    "zip": 82129
  },
  {
    "name": "Michael Smith",
    "address": "305 Oak Ave",
    "city": "Dallas",
    "state_id": "TX",
    "state_name": "Texas",
    "zip": 23150
  },
  {
    "name": "John Hall",
    "address": "4847 Elm St",
    "city": "Phoenix",
    "state_id": "TX",
    "state_name": "Texas",
    "zip": 22523
  },
  {
    "name": "Michael Smith",
    "address": "324 Pine Rd",
    "city": "Houston",
    "state_id": "NY",
    "state_name": "New York",
    "zip": 46502
  },
  {
    "name": "Chris Taylor",
    "address": "1337 Pine Rd",
    "city": "Houston",
    "state_id": "PA",
    "state_name": "Pennsylvania",
    "zip": 48114
  },
  {
    "name": "John Hall",
    "address": "859 Elm St",
    "city": "Los Angeles",
    "state_id": "CA",
    "state_name": "California",
    "zip": 54811
  },
  {
    "name": "John Smith",
    "address": "5272 Elm St",
    "city": "Dallas",
    "state_id": "PA",
    "state_name": "Pennsylvania",
    "zip": 28267
  },
  {
    "name": "Olivia Anderson",
    "address": "9757 Main St",
    "city": "Chicago",
    "state_id": "PA",
    "state_name": "Pennsylvania",
    "zip": 69992
  },
  {
    "name": "Emma Hall",
    "address": "1810 Maple Dr",
    "city": "Philadelphia",
    "state_id": "NY",
    "state_name": "New York",
    "zip": 67095
  },
  {
    "name": "John Taylor",
    "address": "6127 Cedar St",
    "city": "Houston",
    "state_id": "PA",
    "state_name": "Pennsylvania",
    "zip": 58237
  },
  {
    "name": "John Taylor",
    "address": "4845 Washington Blvd",
    "city": "Phoenix",
    "state_id": "AZ",
    "state_name": "Arizona",
    "zip": 36084
  },
  {
    "name": "Emily Johnson",
    "address": "4197 Elm St",
    "city": "New York",
    "state_id": "AZ",
    "state_name": "Arizona",
    "zip": 39018
  },
  {
    "name": "John Johnson",
    "address": "1900 Elm St",
    "city": "Dallas",
    "state_id": "CA",
    "state_name": "California",
    "zip": 27305
  },
  {
    "name": "John Anderson",
    "address": "1442 Washington Blvd",
    "city": "Houston",
    "state_id": "TX",
    "state_name": "Texas",
    "zip": 77824
  },
  {
    "name": "David Walker",
    "address": "8844 Pine Rd",
    "city": "Dallas",
    "state_id": "CA",
    "state_name": "California",
    "zip": 26050
  },
  {
    "name": "David Walker",
    "address": "3268 Cedar St",
    "city": "New York",
    "state_id": "IL",
    "state_name": "Illinois",
    "zip": 66163
  },
  {
    "name": "John Lee",
    "address": "3135 Pine Rd",
    "city": "Phoenix",
    "state_id": "AZ",
    "state_name": "Arizona",
    "zip": 77918
  },
  {
    "name": "Emma Brown",
    "address": "7653 Elm St",
    "city": "Philadelphia",
    "state_id": "AZ",
    "state_name": "Arizona",
    "zip": 59663
  },
  {
    "name": "Michael Hall",
    "address": "1472 Washington Blvd",
    "city": "Phoenix",
    "state_id": "PA",
    "state_name": "Pennsylvania",
    "zip": 24581
  },
  {
    "name": "John Hall",
    "address": "522 Main St",
    "city": "San Diego",
    "state_id": "NY",
    "state_name": "New York",
    "zip": 86612
  },
  {
    "name": "Olivia Johnson",
    "address": "3532 2nd St",
    "city": "Houston",
    "state_id": "AZ",
    "state_name": "Arizona",
    "zip": 48386
  },
  {
    "name": "John Hall",
    "address": "832 Pine Rd",
    "city": "San Diego",
    "state_id": "IL",
    "state_name": "Illinois",
    "zip": 36298
  },
  {
    "name": "Emily Walker",
    "address": "7704 Pine Rd",
    "city": "New York",
    "state_id": "AZ",
    "state_name": "Arizona",
    "zip": 32628
  },
  {
    "name": "Emma Lee",
    "address": "5737 Elm St",
    "city": "Los Angeles",
    "state_id": "NY",
    "state_name": "New York",
    "zip": 93513
  },
  {
    "name": "Emily Taylor",
    "address": "2077 Cedar St",
    "city": "Chicago",
    "state_id": "TX",
    "state_name": "Texas",
    "zip": 55644
  },
  {
    "name": "Michael Walker",
    "address": "7833 Elm St",
    "city": "Los Angeles",
    "state_id": "PA",
    "state_name": "Pennsylvania",
    "zip": 84326
  },
  {
    "name": "John Lee",
    "address": "2381 2nd St",
    "city": "Philadelphia",
    "state_id": "PA",
    "state_name": "Pennsylvania",
    "zip": 47024
  },
  {
    "name": "John Anderson",
    "address": "4638 Pine Rd",
    "city": "Chicago",
    "state_id": "IL",
    "state_name": "Illinois",
    "zip": 84252
  },
  {
    "name": "John Lee",
    "address": "4944 Main St",
    "city": "Phoenix",
    "state_id": "AZ",
    "state_name": "Arizona",
    "zip": 48088
  },
  {
    "name": "Olivia Walker",
    "address": "2659 Main St",
    "city": "Chicago",
    "state_id": "IL",
    "state_name": "Illinois",
    "zip": 15455
  },
  {
    "name": "Chris Walker",
    "address": "7970 Main St",
    "city": "New York",
    "state_id": "TX",
    "state_name": "Texas",
    "zip": 64840
  },
  {
    "name": "John Hall",
    "address": "4671 Washington Blvd",
    "city": "New York",
    "state_id": "AZ",
    "state_name": "Arizona",
    "zip": 14105
  },
  {
    "name": "Emma Smith",
    "address": "8783 2nd St",
    "city": "San Diego",
    "state_id": "AZ",
    "state_name": "Arizona",
    "zip": 93245
  },
  {
    "name": "Chris Lee",
    "address": "1322 Elm St",
    "city": "Phoenix",
    "state_id": "CA",
    "state_name": "California",
    "zip": 88601
  },
  {
    "name": "Emma Smith",
    "address": "8882 Oak Ave",
    "city": "Los Angeles",
    "state_id": "AZ",
    "state_name": "Arizona",
    "zip": 92755
  },
  {
    "name": "Olivia Walker",
    "address": "2602 Oak Ave",
    "city": "Los Angeles",
    "state_id": "AZ",
    "state_name": "Arizona",
    "zip": 69448
  },
  {
    "name": "Emma Taylor",
    "address": "4231 Oak Ave",
    "city": "Dallas",
    "state_id": "TX",
    "state_name": "Texas",
    "zip": 83184
  },
  {
    "name": "Chris Smith",
    "address": "5024 Cedar St",
    "city": "Philadelphia",
    "state_id": "IL",
    "state_name": "Illinois",
    "zip": 35499
  },
  {
    "name": "Chris Smith",
    "address": "4687 Elm St",
    "city": "Philadelphia",
    "state_id": "CA",
    "state_name": "California",
    "zip": 50813
  },
  {
    "name": "Olivia Johnson",
    "address": "9453 Oak Ave",
    "city": "Phoenix",
    "state_id": "CA",
    "state_name": "California",
    "zip": 26415
  },
  {
    "name": "Michael Walker",
    "address": "6108 Maple Dr",
    "city": "New York",
    "state_id": "PA",
    "state_name": "Pennsylvania",
    "zip": 29636
  },
  {
    "name": "Emily Lee",
    "address": "3291 2nd St",
    "city": "Los Angeles",
    "state_id": "TX",
    "state_name": "Texas",
    "zip": 55404
  },
  {
    "name": "Olivia Hall",
    "address": "6191 2nd St",
    "city": "Phoenix",
    "state_id": "CA",
    "state_name": "California",
    "zip": 15372
  },
  {
    "name": "Emily Lee",
    "address": "6182 2nd St",
    "city": "Los Angeles",
    "state_id": "AZ",
    "state_name": "Arizona",
    "zip": 15317
  },
  {
    "name": "Olivia Walker",
    "address": "7434 Washington Blvd",
    "city": "Philadelphia",
    "state_id": "PA",
    "state_name": "Pennsylvania",
    "zip": 19985
  },
  {
    "name": "Chris Taylor",
    "address": "2339 Elm St",
    "city": "Dallas",
    "state_id": "NY",
    "state_name": "New York",
    "zip": 49703
  },
  {
    "name": "David Walker",
    "address": "6944 Elm St",
    "city": "Houston",
    "state_id": "PA",
    "state_name": "Pennsylvania",
    "zip": 62972
  },
  {
    "name": "Emma Taylor",
    "address": "7724 Main St",
    "city": "Phoenix",
    "state_id": "TX",
    "state_name": "Texas",
    "zip": 53079
  },
  {
    "name": "Michael Brown",
    "address": "9972 2nd St",
    "city": "Phoenix",
    "state_id": "TX",
    "state_name": "Texas",
    "zip": 36869
  },
  {
    "name": "Emma Brown",
    "address": "9223 Washington Blvd",
    "city": "Philadelphia",
    "state_id": "IL",
    "state_name": "Illinois",
    "zip": 81695
  },
  {
    "name": "David Hall",
    "address": "474 Cedar St",
    "city": "Chicago",
    "state_id": "TX",
    "state_name": "Texas",
    "zip": 18177
  },
  {
    "name": "Michael Johnson",
    "address": "3997 Pine Rd",
    "city": "Phoenix",
    "state_id": "TX",
    "state_name": "Texas",
    "zip": 92865
  },
  {
    "name": "Olivia Brown",
    "address": "9975 2nd St",
    "city": "New York",
    "state_id": "PA",
    "state_name": "Pennsylvania",
    "zip": 93764
  },
  {
    "name": "Chris Brown",
    "address": "7003 Pine Rd",
    "city": "Phoenix",
    "state_id": "TX",
    "state_name": "Texas",
    "zip": 77410
  },
  {
    "name": "Jane Hall",
    "address": "9088 Cedar St",
    "city": "New York",
    "state_id": "CA",
    "state_name": "California",
    "zip": 74315
  },
  {
    "name": "Olivia Brown",
    "address": "4393 Pine Rd",
    "city": "Los Angeles",
    "state_id": "NY",
    "state_name": "New York",
    "zip": 79535
  },
  {
    "name": "Olivia Smith",
    "address": "9273 Maple Dr",
    "city": "Phoenix",
    "state_id": "NY",
    "state_name": "New York",
    "zip": 14607
  },
  {
    "name": "John Walker",
    "address": "2438 Pine Rd",
    "city": "Dallas",
    "state_id": "NY",
    "state_name": "New York",
    "zip": 46324
  },
  {
    "name": "John Brown",
    "address": "3335 2nd St",
    "city": "Phoenix",
    "state_id": "NY",
    "state_name": "New York",
    "zip": 40390
  },
  {
    "name": "Jane Anderson",
    "address": "622 Oak Ave",
    "city": "Chicago",
    "state_id": "IL",
    "state_name": "Illinois",
    "zip": 61239
  },
  {
    "name": "Emily Lee",
    "address": "842 Cedar St",
    "city": "Philadelphia",
    "state_id": "TX",
    "state_name": "Texas",
    "zip": 14988
  },
  {
    "name": "Jane Lee",
    "address": "6107 2nd St",
    "city": "Phoenix",
    "state_id": "PA",
    "state_name": "Pennsylvania",
    "zip": 28578
  },
  {
    "name": "Chris Hall",
    "address": "957 Oak Ave",
    "city": "Los Angeles",
    "state_id": "CA",
    "state_name": "California",
    "zip": 22460
  },
  {
    "name": "John Walker",
    "address": "426 Washington Blvd",
    "city": "New York",
    "state_id": "NY",
    "state_name": "New York",
    "zip": 31807
  },
  {
    "name": "Jane Johnson",
    "address": "7396 Main St",
    "city": "Dallas",
    "state_id": "PA",
    "state_name": "Pennsylvania",
    "zip": 26131
  },
  {
    "name": "Emma Hall",
    "address": "5420 2nd St",
    "city": "Los Angeles",
    "state_id": "TX",
    "state_name": "Texas",
    "zip": 44176
  },
  {
    "name": "Emma Walker",
    "address": "3611 Oak Ave",
    "city": "Houston",
    "state_id": "CA",
    "state_name": "California",
    "zip": 62769
  },
  {
    "name": "Michael Taylor",
    "address": "5164 Elm St",
    "city": "Dallas",
    "state_id": "NY",
    "state_name": "New York",
    "zip": 75387
  },
  {
    "name": "Emily Smith",
    "address": "8902 2nd St",
    "city": "Phoenix",
    "state_id": "TX",
    "state_name": "Texas",
    "zip": 11382
  },
  {
    "name": "Emma Anderson",
    "address": "3268 Main St",
    "city": "Phoenix",
    "state_id": "CA",
    "state_name": "California",
    "zip": 40023
  },
  {
    "name": "Olivia Smith",
    "address": "3880 Cedar St",
    "city": "Chicago",
    "state_id": "PA",
    "state_name": "Pennsylvania",
    "zip": 76799
  },
  {
    "name": "Emma Johnson",
    "address": "1756 Oak Ave",
    "city": "Chicago",
    "state_id": "CA",
    "state_name": "California",
    "zip": 57128
  },
  {
    "name": "Olivia Johnson",
    "address": "4130 Main St",
    "city": "Philadelphia",
    "state_id": "IL",
    "state_name": "Illinois",
    "zip": 89452
  },
  {
    "name": "Olivia Brown",
    "address": "7437 Cedar St",
    "city": "Philadelphia",
    "state_id": "TX",
    "state_name": "Texas",
    "zip": 68079
  },
  {
    "name": "Emily Walker",
    "address": "5927 Pine Rd",
    "city": "New York",
    "state_id": "PA",
    "state_name": "Pennsylvania",
    "zip": 17662
  },
  {
    "name": "Olivia Smith",
    "address": "4354 Cedar St",
    "city": "Los Angeles",
    "state_id": "NY",
    "state_name": "New York",
    "zip": 64996
  },
  {
    "name": "David Smith",
    "address": "8350 Elm St",
    "city": "Philadelphia",
    "state_id": "PA",
    "state_name": "Pennsylvania",
    "zip": 38918
  },
  {
    "name": "Jane Brown",
    "address": "1998 Elm St",
    "city": "San Diego",
    "state_id": "CA",
    "state_name": "California",
    "zip": 93614
  },
  {
    "name": "Michael Hall",
    "address": "627 Elm St",
    "city": "Phoenix",
    "state_id": "PA",
    "state_name": "Pennsylvania",
    "zip": 18925
  },
  {
    "name": "John Hall",
    "address": "3513 Cedar St",
    "city": "New York",
    "state_id": "CA",
    "state_name": "California",
    "zip": 87897
  },
  {
    "name": "Emily Brown",
    "address": "9804 Oak Ave",
    "city": "Chicago",
    "state_id": "NY",
    "state_name": "New York",
    "zip": 73754
  },
  {
    "name": "Chris Walker",
    "address": "9189 Maple Dr",
    "city": "Houston",
    "state_id": "IL",
    "state_name": "Illinois",
    "zip": 64933
  },
  {
    "name": "Emma Smith",
    "address": "5790 Cedar St",
    "city": "Philadelphia",
    "state_id": "CA",
    "state_name": "California",
    "zip": 45558
  },
  {
    "name": "Chris Lee",
    "address": "4418 Elm St",
    "city": "New York",
    "state_id": "NY",
    "state_name": "New York",
    "zip": 79019
  },
  {
    "name": "John Johnson",
    "address": "4496 Cedar St",
    "city": "New York",
    "state_id": "AZ",
    "state_name": "Arizona",
    "zip": 92981
  },
  {
    "name": "David Walker",
    "address": "7289 Pine Rd",
    "city": "Houston",
    "state_id": "NY",
    "state_name": "New York",
    "zip": 95647
  },
  {
    "name": "Olivia Anderson",
    "address": "3215 Main St",
    "city": "Philadelphia",
    "state_id": "CA",
    "state_name": "California",
    "zip": 74725
  },
  {
    "name": "Emily Hall",
    "address": "9944 Main St",
    "city": "San Diego",
    "state_id": "AZ",
    "state_name": "Arizona",
    "zip": 80858
  },
  {
    "name": "Chris Hall",
    "address": "9569 Oak Ave",
    "city": "Philadelphia",
    "state_id": "CA",
    "state_name": "California",
    "zip": 89261
  },
  {
    "name": "David Brown",
    "address": "9011 Cedar St",
    "city": "Dallas",
    "state_id": "PA",
    "state_name": "Pennsylvania",
    "zip": 61354
  },
  {
    "name": "Emily Walker",
    "address": "6060 Elm St",
    "city": "San Diego",
    "state_id": "PA",
    "state_name": "Pennsylvania",
    "zip": 47274
  },
  {
    "name": "Chris Lee",
    "address": "564 Washington Blvd",
    "city": "Houston",
    "state_id": "IL",
    "state_name": "Illinois",
    "zip": 62192
  },
  {
    "name": "Chris Smith",
    "address": "1839 Washington Blvd",
    "city": "Phoenix",
    "state_id": "IL",
    "state_name": "Illinois",
    "zip": 51312
  },
  {
    "name": "Jane Lee",
    "address": "4269 Washington Blvd",
    "city": "Chicago",
    "state_id": "PA",
    "state_name": "Pennsylvania",
    "zip": 93640
  },
  {
    "name": "Emma Anderson",
    "address": "2004 Maple Dr",
    "city": "Los Angeles",
    "state_id": "IL",
    "state_name": "Illinois",
    "zip": 36299
  },
  {
    "name": "Olivia Johnson",
    "address": "437 Washington Blvd",
    "city": "Dallas",
    "state_id": "PA",
    "state_name": "Pennsylvania",
    "zip": 42509
  },
  {
    "name": "Michael Walker",
    "address": "3107 Washington Blvd",
    "city": "Chicago",
    "state_id": "PA",
    "state_name": "Pennsylvania",
    "zip": 15907
  },
  {
    "name": "Chris Johnson",
    "address": "2520 Main St",
    "city": "Dallas",
    "state_id": "CA",
    "state_name": "California",
    "zip": 31064
  },
  {
    "name": "Jane Taylor",
    "address": "1001 Main St",
    "city": "Phoenix",
    "state_id": "AZ",
    "state_name": "Arizona",
    "zip": 89668
  },
  {
    "name": "Jane Lee",
    "address": "8076 Main St",
    "city": "New York",
    "state_id": "IL",
    "state_name": "Illinois",
    "zip": 93241
  },
  {
    "name": "Olivia Anderson",
    "address": "8653 Cedar St",
    "city": "Houston",
    "state_id": "CA",
    "state_name": "California",
    "zip": 58149
  },
  {
    "name": "Jane Hall",
    "address": "4505 Pine Rd",
    "city": "Houston",
    "state_id": "NY",
    "state_name": "New York",
    "zip": 49208
  },
  {
    "name": "Emily Taylor",
    "address": "8145 Pine Rd",
    "city": "Philadelphia",
    "state_id": "IL",
    "state_name": "Illinois",
    "zip": 95342
  },
  {
    "name": "Michael Hall",
    "address": "6657 Elm St",
    "city": "San Diego",
    "state_id": "AZ",
    "state_name": "Arizona",
    "zip": 17158
  },
  {
    "name": "Chris Lee",
    "address": "2728 Elm St",
    "city": "Los Angeles",
    "state_id": "CA",
    "state_name": "California",
    "zip": 31474
  },
  {
    "name": "Michael Lee",
    "address": "3914 Maple Dr",
    "city": "San Diego",
    "state_id": "CA",
    "state_name": "California",
    "zip": 85780
  },
  {
    "name": "David Johnson",
    "address": "3321 Oak Ave",
    "city": "Los Angeles",
    "state_id": "CA",
    "state_name": "California",
    "zip": 28306
  },
  {
    "name": "David Hall",
    "address": "9591 Main St",
    "city": "Houston",
    "state_id": "CA",
    "state_name": "California",
    "zip": 87395
  },
  {
    "name": "Emma Brown",
    "address": "8078 Elm St",
    "city": "Dallas",
    "state_id": "AZ",
    "state_name": "Arizona",
    "zip": 15117
  },
  {
    "name": "Olivia Lee",
    "address": "1404 2nd St",
    "city": "New York",
    "state_id": "CA",
    "state_name": "California",
    "zip": 51992
  },
  {
    "name": "Chris Smith",
    "address": "5772 Cedar St",
    "city": "San Diego",
    "state_id": "TX",
    "state_name": "Texas",
    "zip": 35349
  },
  {
    "name": "Chris Lee",
    "address": "7116 Pine Rd",
    "city": "New York",
    "state_id": "PA",
    "state_name": "Pennsylvania",
    "zip": 42489
  },
  {
    "name": "David Smith",
    "address": "4417 Maple Dr",
    "city": "Philadelphia",
    "state_id": "PA",
    "state_name": "Pennsylvania",
    "zip": 29334
  },
  {
    "name": "Emma Taylor",
    "address": "1998 Cedar St",
    "city": "Phoenix",
    "state_id": "TX",
    "state_name": "Texas",
    "zip": 94838
  },
  {
    "name": "Chris Johnson",
    "address": "9781 Pine Rd",
    "city": "San Diego",
    "state_id": "AZ",
    "state_name": "Arizona",
    "zip": 62949
  },
  {
    "name": "John Johnson",
    "address": "7797 Main St",
    "city": "Chicago",
    "state_id": "TX",
    "state_name": "Texas",
    "zip": 38482
  },
  {
    "name": "Michael Smith",
    "address": "7610 Pine Rd",
    "city": "New York",
    "state_id": "AZ",
    "state_name": "Arizona",
    "zip": 75543
  },
  {
    "name": "David Hall",
    "address": "9066 Washington Blvd",
    "city": "New York",
    "state_id": "CA",
    "state_name": "California",
    "zip": 19650
  },
  {
    "name": "Emily Hall",
    "address": "1642 Maple Dr",
    "city": "Los Angeles",
    "state_id": "PA",
    "state_name": "Pennsylvania",
    "zip": 66794
  },
  {
    "name": "David Hall",
    "address": "3767 Maple Dr",
    "city": "Chicago",
    "state_id": "PA",
    "state_name": "Pennsylvania",
    "zip": 38665
  },
  {
    "name": "Jane Brown",
    "address": "3819 Pine Rd",
    "city": "Chicago",
    "state_id": "CA",
    "state_name": "California",
    "zip": 96150
  },
  {
    "name": "David Hall",
    "address": "8478 Maple Dr",
    "city": "Dallas",
    "state_id": "IL",
    "state_name": "Illinois",
    "zip": 81135
  },
  {
    "name": "Michael Johnson",
    "address": "449 Oak Ave",
    "city": "Houston",
    "state_id": "IL",
    "state_name": "Illinois",
    "zip": 24792
  },
  {
    "name": "John Johnson",
    "address": "3444 Cedar St",
    "city": "New York",
    "state_id": "IL",
    "state_name": "Illinois",
    "zip": 10393
  },
  {
    "name": "Olivia Smith",
    "address": "1389 Pine Rd",
    "city": "Houston",
    "state_id": "NY",
    "state_name": "New York",
    "zip": 75086
  },
  {
    "name": "David Walker",
    "address": "9280 Cedar St",
    "city": "Philadelphia",
    "state_id": "NY",
    "state_name": "New York",
    "zip": 74647
  },
  {
    "name": "Emily Brown",
    "address": "6731 Washington Blvd",
    "city": "Chicago",
    "state_id": "NY",
    "state_name": "New York",
    "zip": 43603
  },
  {
    "name": "David Hall",
    "address": "8871 Pine Rd",
    "city": "Phoenix",
    "state_id": "IL",
    "state_name": "Illinois",
    "zip": 37222
  },
  {
    "name": "Emily Taylor",
    "address": "108 Maple Dr",
    "city": "San Diego",
    "state_id": "NY",
    "state_name": "New York",
    "zip": 28083
  },
  {
    "name": "Emily Anderson",
    "address": "9774 Washington Blvd",
    "city": "Houston",
    "state_id": "AZ",
    "state_name": "Arizona",
    "zip": 36835
  },
  {
    "name": "John Smith",
    "address": "9353 Cedar St",
    "city": "New York",
    "state_id": "PA",
    "state_name": "Pennsylvania",
    "zip": 49952
  },
  {
    "name": "Olivia Johnson",
    "address": "8520 Elm St",
    "city": "Chicago",
    "state_id": "CA",
    "state_name": "California",
    "zip": 44925
  },
  {
    "name": "Emily Johnson",
    "address": "3247 2nd St",
    "city": "San Diego",
    "state_id": "IL",
    "state_name": "Illinois",
    "zip": 13729
  },
  {
    "name": "Emily Taylor",
    "address": "7632 Elm St",
    "city": "Houston",
    "state_id": "CA",
    "state_name": "California",
    "zip": 31502
  },
  {
    "name": "Olivia Lee",
    "address": "3023 Pine Rd",
    "city": "Dallas",
    "state_id": "TX",
    "state_name": "Texas",
    "zip": 90445
  },
  {
    "name": "David Anderson",
    "address": "7559 Washington Blvd",
    "city": "New York",
    "state_id": "NY",
    "state_name": "New York",
    "zip": 35323
  },
  {
    "name": "Olivia Lee",
    "address": "4344 Cedar St",
    "city": "Los Angeles",
    "state_id": "PA",
    "state_name": "Pennsylvania",
    "zip": 99488
  },
  {
    "name": "John Hall",
    "address": "6114 Oak Ave",
    "city": "Los Angeles",
    "state_id": "IL",
    "state_name": "Illinois",
    "zip": 98499
  },
  {
    "name": "Olivia Taylor",
    "address": "3364 2nd St",
    "city": "Phoenix",
    "state_id": "CA",
    "state_name": "California",
    "zip": 94897
  },
  {
    "name": "David Hall",
    "address": "2492 Cedar St",
    "city": "Houston",
    "state_id": "AZ",
    "state_name": "Arizona",
    "zip": 12071
  },
  {
    "name": "Emma Smith",
    "address": "3303 Elm St",
    "city": "Phoenix",
    "state_id": "IL",
    "state_name": "Illinois",
    "zip": 13459
  },
  {
    "name": "Olivia Taylor",
    "address": "8419 Cedar St",
    "city": "New York",
    "state_id": "IL",
    "state_name": "Illinois",
    "zip": 26858
  },
  {
    "name": "John Hall",
    "address": "7238 Pine Rd",
    "city": "Philadelphia",
    "state_id": "CA",
    "state_name": "California",
    "zip": 84826
  },
  {
    "name": "David Walker",
    "address": "7009 Elm St",
    "city": "Dallas",
    "state_id": "PA",
    "state_name": "Pennsylvania",
    "zip": 77594
  },
  {
    "name": "Olivia Johnson",
    "address": "2698 Elm St",
    "city": "San Diego",
    "state_id": "IL",
    "state_name": "Illinois",
    "zip": 49092
  },
  {
    "name": "Michael Lee",
    "address": "7369 Elm St",
    "city": "Chicago",
    "state_id": "CA",
    "state_name": "California",
    "zip": 39322
  },
  {
    "name": "Emma Anderson",
    "address": "7147 2nd St",
    "city": "Los Angeles",
    "state_id": "TX",
    "state_name": "Texas",
    "zip": 54357
  },
  {
    "name": "Jane Johnson",
    "address": "3689 Cedar St",
    "city": "Phoenix",
    "state_id": "NY",
    "state_name": "New York",
    "zip": 47996
  },
  {
    "name": "Emma Anderson",
    "address": "9222 2nd St",
    "city": "Chicago",
    "state_id": "IL",
    "state_name": "Illinois",
    "zip": 63976
  },
  {
    "name": "John Lee",
    "address": "9976 Maple Dr",
    "city": "Dallas",
    "state_id": "NY",
    "state_name": "New York",
    "zip": 48493
  },
  {
    "name": "Jane Brown",
    "address": "2200 Maple Dr",
    "city": "Dallas",
    "state_id": "TX",
    "state_name": "Texas",
    "zip": 71775
  },
  {
    "name": "Chris Brown",
    "address": "2621 Pine Rd",
    "city": "Dallas",
    "state_id": "NY",
    "state_name": "New York",
    "zip": 96891
  },
  {
    "name": "Chris Lee",
    "address": "253 Maple Dr",
    "city": "Chicago",
    "state_id": "PA",
    "state_name": "Pennsylvania",
    "zip": 84320
  },
  {
    "name": "Jane Anderson",
    "address": "3838 Oak Ave",
    "city": "San Diego",
    "state_id": "PA",
    "state_name": "Pennsylvania",
    "zip": 48485
  },
  {
    "name": "David Hall",
    "address": "3947 Oak Ave",
    "city": "Houston",
    "state_id": "TX",
    "state_name": "Texas",
    "zip": 20461
  },
  {
    "name": "Emily Taylor",
    "address": "2839 Main St",
    "city": "Chicago",
    "state_id": "PA",
    "state_name": "Pennsylvania",
    "zip": 35837
  },
  {
    "name": "Olivia Walker",
    "address": "2409 Main St",
    "city": "New York",
    "state_id": "PA",
    "state_name": "Pennsylvania",
    "zip": 45496
  },
  {
    "name": "Jane Lee",
    "address": "1619 2nd St",
    "city": "Los Angeles",
    "state_id": "AZ",
    "state_name": "Arizona",
    "zip": 66824
  },
  {
    "name": "Chris Anderson",
    "address": "8353 2nd St",
    "city": "Houston",
    "state_id": "PA",
    "state_name": "Pennsylvania",
    "zip": 52096
  },
  {
    "name": "Jane Brown",
    "address": "5822 Elm St",
    "city": "Houston",
    "state_id": "AZ",
    "state_name": "Arizona",
    "zip": 34219
  },
  {
    "name": "Chris Brown",
    "address": "7413 Pine Rd",
    "city": "Dallas",
    "state_id": "TX",
    "state_name": "Texas",
    "zip": 57897
  },
  {
    "name": "David Walker",
    "address": "9602 Main St",
    "city": "Phoenix",
    "state_id": "NY",
    "state_name": "New York",
    "zip": 89057
  },
  {
    "name": "Michael Hall",
    "address": "1097 2nd St",
    "city": "Dallas",
    "state_id": "PA",
    "state_name": "Pennsylvania",
    "zip": 43858
  },
  {
    "name": "Olivia Taylor",
    "address": "4017 Main St",
    "city": "Los Angeles",
    "state_id": "AZ",
    "state_name": "Arizona",
    "zip": 94833
  },
  {
    "name": "Chris Johnson",
    "address": "2656 Washington Blvd",
    "city": "Houston",
    "state_id": "IL",
    "state_name": "Illinois",
    "zip": 73242
  },
  {
    "name": "David Walker",
    "address": "4284 Oak Ave",
    "city": "Chicago",
    "state_id": "IL",
    "state_name": "Illinois",
    "zip": 59353
  },
  {
    "name": "Emma Lee",
    "address": "1652 Cedar St",
    "city": "Phoenix",
    "state_id": "PA",
    "state_name": "Pennsylvania",
    "zip": 79957
  },
  {
    "name": "David Taylor",
    "address": "1177 Main St",
    "city": "Dallas",
    "state_id": "PA",
    "state_name": "Pennsylvania",
    "zip": 26355
  },
  {
    "name": "David Brown",
    "address": "5875 Maple Dr",
    "city": "Chicago",
    "state_id": "PA",
    "state_name": "Pennsylvania",
    "zip": 20712
  },
  {
    "name": "David Hall",
    "address": "7277 Elm St",
    "city": "Houston",
    "state_id": "NY",
    "state_name": "New York",
    "zip": 51401
  },
  {
    "name": "Chris Walker",
    "address": "4369 Elm St",
    "city": "Houston",
    "state_id": "PA",
    "state_name": "Pennsylvania",
    "zip": 98115
  },
  {
    "name": "Chris Johnson",
    "address": "6190 Oak Ave",
    "city": "Philadelphia",
    "state_id": "TX",
    "state_name": "Texas",
    "zip": 74977
  },
  {
    "name": "Jane Smith",
    "address": "693 Pine Rd",
    "city": "New York",
    "state_id": "CA",
    "state_name": "California",
    "zip": 30826
  },
  {
    "name": "Jane Anderson",
    "address": "6491 Main St",
    "city": "Phoenix",
    "state_id": "PA",
    "state_name": "Pennsylvania",
    "zip": 79466
  },
  {
    "name": "Chris Brown",
    "address": "2877 2nd St",
    "city": "Dallas",
    "state_id": "CA",
    "state_name": "California",
    "zip": 83916
  },
  {
    "name": "Olivia Hall",
    "address": "2111 2nd St",
    "city": "Dallas",
    "state_id": "IL",
    "state_name": "Illinois",
    "zip": 53067
  },
  {
    "name": "Emily Johnson",
    "address": "2991 Washington Blvd",
    "city": "New York",
    "state_id": "IL",
    "state_name": "Illinois",
    "zip": 31219
  },
  {
    "name": "Jane Smith",
    "address": "2009 Cedar St",
    "city": "Los Angeles",
    "state_id": "PA",
    "state_name": "Pennsylvania",
    "zip": 43966
  },
  {
    "name": "Chris Anderson",
    "address": "6342 Washington Blvd",
    "city": "San Diego",
    "state_id": "IL",
    "state_name": "Illinois",
    "zip": 91669
  },
  {
    "name": "John Anderson",
    "address": "6391 Pine Rd",
    "city": "Chicago",
    "state_id": "AZ",
    "state_name": "Arizona",
    "zip": 87874
  },
  {
    "name": "Emily Brown",
    "address": "4507 Washington Blvd",
    "city": "Houston",
    "state_id": "PA",
    "state_name": "Pennsylvania",
    "zip": 75671
  },
  {
    "name": "Chris Johnson",
    "address": "2197 Oak Ave",
    "city": "New York",
    "state_id": "IL",
    "state_name": "Illinois",
    "zip": 46757
  },
  {
    "name": "Chris Walker",
    "address": "4006 Cedar St",
    "city": "Chicago",
    "state_id": "CA",
    "state_name": "California",
    "zip": 36728
  },
  {
    "name": "Olivia Taylor",
    "address": "4245 Washington Blvd",
    "city": "Philadelphia",
    "state_id": "PA",
    "state_name": "Pennsylvania",
    "zip": 36386
  },
  {
    "name": "Jane Anderson",
    "address": "2394 Maple Dr",
    "city": "Chicago",
    "state_id": "PA",
    "state_name": "Pennsylvania",
    "zip": 20187
  },
  {
    "name": "Emma Anderson",
    "address": "706 2nd St",
    "city": "Los Angeles",
    "state_id": "AZ",
    "state_name": "Arizona",
    "zip": 76245
  },
  {
    "name": "David Walker",
    "address": "2386 Main St",
    "city": "Phoenix",
    "state_id": "PA",
    "state_name": "Pennsylvania",
    "zip": 92272
  },
  {
    "name": "Emily Smith",
    "address": "4188 2nd St",
    "city": "Phoenix",
    "state_id": "NY",
    "state_name": "New York",
    "zip": 57491
  },
  {
    "name": "Emma Walker",
    "address": "3655 Maple Dr",
    "city": "Dallas",
    "state_id": "IL",
    "state_name": "Illinois",
    "zip": 39965
  },
  {
    "name": "Jane Hall",
    "address": "7011 Elm St",
    "city": "Dallas",
    "state_id": "PA",
    "state_name": "Pennsylvania",
    "zip": 66469
  },
  {
    "name": "David Anderson",
    "address": "7738 Oak Ave",
    "city": "Los Angeles",
    "state_id": "IL",
    "state_name": "Illinois",
    "zip": 58118
  },
  {
    "name": "Jane Anderson",
    "address": "3021 Washington Blvd",
    "city": "Los Angeles",
    "state_id": "NY",
    "state_name": "New York",
    "zip": 19552
  },
  {
    "name": "Emily Anderson",
    "address": "7700 Main St",
    "city": "San Diego",
    "state_id": "TX",
    "state_name": "Texas",
    "zip": 48176
  },
  {
    "name": "Chris Walker",
    "address": "7882 2nd St",
    "city": "Houston",
    "state_id": "IL",
    "state_name": "Illinois",
    "zip": 64709
  },
  {
    "name": "Olivia Hall",
    "address": "3395 2nd St",
    "city": "San Diego",
    "state_id": "CA",
    "state_name": "California",
    "zip": 99706
  },
  {
    "name": "Olivia Brown",
    "address": "2993 Pine Rd",
    "city": "Los Angeles",
    "state_id": "NY",
    "state_name": "New York",
    "zip": 96275
  },
  {
    "name": "Olivia Walker",
    "address": "8750 Oak Ave",
    "city": "Phoenix",
    "state_id": "NY",
    "state_name": "New York",
    "zip": 19436
  },
  {
    "name": "Jane Johnson",
    "address": "5261 Cedar St",
    "city": "Houston",
    "state_id": "AZ",
    "state_name": "Arizona",
    "zip": 58798
  },
  {
    "name": "Chris Walker",
    "address": "8100 Pine Rd",
    "city": "Dallas",
    "state_id": "IL",
    "state_name": "Illinois",
    "zip": 69024
  },
  {
    "name": "Michael Walker",
    "address": "5516 Washington Blvd",
    "city": "Phoenix",
    "state_id": "AZ",
    "state_name": "Arizona",
    "zip": 92448
  },
  {
    "name": "John Hall",
    "address": "2243 Maple Dr",
    "city": "Philadelphia",
    "state_id": "PA",
    "state_name": "Pennsylvania",
    "zip": 54626
  },
  {
    "name": "Jane Taylor",
    "address": "1527 2nd St",
    "city": "New York",
    "state_id": "NY",
    "state_name": "New York",
    "zip": 11628
  },
  {
    "name": "Chris Walker",
    "address": "6659 Washington Blvd",
    "city": "Los Angeles",
    "state_id": "TX",
    "state_name": "Texas",
    "zip": 47126
  },
  {
    "name": "Michael Taylor",
    "address": "4790 Oak Ave",
    "city": "Philadelphia",
    "state_id": "IL",
    "state_name": "Illinois",
    "zip": 31945
  },
  {
    "name": "John Walker",
    "address": "1913 Maple Dr",
    "city": "New York",
    "state_id": "PA",
    "state_name": "Pennsylvania",
    "zip": 80433
  },
  {
    "name": "Jane Walker",
    "address": "4029 Elm St",
    "city": "San Diego",
    "state_id": "CA",
    "state_name": "California",
    "zip": 43148
  },
  {
    "name": "John Walker",
    "address": "3029 Cedar St",
    "city": "Los Angeles",
    "state_id": "PA",
    "state_name": "Pennsylvania",
    "zip": 19076
  },
  {
    "name": "Michael Smith",
    "address": "5745 Washington Blvd",
    "city": "Philadelphia",
    "state_id": "IL",
    "state_name": "Illinois",
    "zip": 36128
  },
  {
    "name": "Jane Hall",
    "address": "7274 Maple Dr",
    "city": "Chicago",
    "state_id": "NY",
    "state_name": "New York",
    "zip": 75638
  },
  {
    "name": "Emily Smith",
    "address": "6590 Pine Rd",
    "city": "San Diego",
    "state_id": "NY",
    "state_name": "New York",
    "zip": 39767
  },
  {
    "name": "Emily Anderson",
    "address": "9809 Maple Dr",
    "city": "New York",
    "state_id": "PA",
    "state_name": "Pennsylvania",
    "zip": 76256
  },
  {
    "name": "John Walker",
    "address": "9126 Elm St",
    "city": "Phoenix",
    "state_id": "TX",
    "state_name": "Texas",
    "zip": 32927
  },
  {
    "name": "Emily Lee",
    "address": "3487 Pine Rd",
    "city": "Chicago",
    "state_id": "TX",
    "state_name": "Texas",
    "zip": 95601
  },
  {
    "name": "Olivia Brown",
    "address": "2924 Oak Ave",
    "city": "Phoenix",
    "state_id": "IL",
    "state_name": "Illinois",
    "zip": 85887
  },
  {
    "name": "Emma Walker",
    "address": "5122 Pine Rd",
    "city": "Houston",
    "state_id": "NY",
    "state_name": "New York",
    "zip": 96957
  },
  {
    "name": "Jane Taylor",
    "address": "6910 Main St",
    "city": "Philadelphia",
    "state_id": "CA",
    "state_name": "California",
    "zip": 41600
  },
  {
    "name": "Jane Brown",
    "address": "2438 Elm St",
    "city": "Los Angeles",
    "state_id": "CA",
    "state_name": "California",
    "zip": 47886
  },
  {
    "name": "Emily Hall",
    "address": "6791 Oak Ave",
    "city": "Philadelphia",
    "state_id": "AZ",
    "state_name": "Arizona",
    "zip": 64956
  },
  {
    "name": "Emily Walker",
    "address": "8264 Pine Rd",
    "city": "Chicago",
    "state_id": "NY",
    "state_name": "New York",
    "zip": 59827
  },
  {
    "name": "John Hall",
    "address": "7208 Washington Blvd",
    "city": "Phoenix",
    "state_id": "CA",
    "state_name": "California",
    "zip": 60281
  },
  {
    "name": "Olivia Anderson",
    "address": "5863 Cedar St",
    "city": "Houston",
    "state_id": "PA",
    "state_name": "Pennsylvania",
    "zip": 76343
  },
  {
    "name": "Emily Lee",
    "address": "5300 Pine Rd",
    "city": "Philadelphia",
    "state_id": "CA",
    "state_name": "California",
    "zip": 70846
  },
  {
    "name": "Jane Anderson",
    "address": "5512 Oak Ave",
    "city": "Houston",
    "state_id": "IL",
    "state_name": "Illinois",
    "zip": 77355
  },
  {
    "name": "Chris Anderson",
    "address": "3648 Washington Blvd",
    "city": "Houston",
    "state_id": "CA",
    "state_name": "California",
    "zip": 25248
  },
  {
    "name": "Jane Taylor",
    "address": "849 Washington Blvd",
    "city": "Dallas",
    "state_id": "IL",
    "state_name": "Illinois",
    "zip": 62506
  },
  {
    "name": "Michael Hall",
    "address": "6889 Maple Dr",
    "city": "Chicago",
    "state_id": "IL",
    "state_name": "Illinois",
    "zip": 62224
  },
  {
    "name": "David Hall",
    "address": "1927 Main St",
    "city": "San Diego",
    "state_id": "PA",
    "state_name": "Pennsylvania",
    "zip": 62707
  },
  {
    "name": "David Taylor",
    "address": "6100 Maple Dr",
    "city": "San Diego",
    "state_id": "AZ",
    "state_name": "Arizona",
    "zip": 52233
  },
  {
    "name": "John Brown",
    "address": "229 Elm St",
    "city": "Los Angeles",
    "state_id": "AZ",
    "state_name": "Arizona",
    "zip": 43244
  },
  {
    "name": "Olivia Smith",
    "address": "6875 Maple Dr",
    "city": "Philadelphia",
    "state_id": "IL",
    "state_name": "Illinois",
    "zip": 58619
  },
  {
    "name": "Jane Lee",
    "address": "8741 2nd St",
    "city": "San Diego",
    "state_id": "NY",
    "state_name": "New York",
    "zip": 90224
  },
  {
    "name": "Michael Lee",
    "address": "6142 Washington Blvd",
    "city": "New York",
    "state_id": "NY",
    "state_name": "New York",
    "zip": 38391
  },
  {
    "name": "Emily Smith",
    "address": "9433 Pine Rd",
    "city": "Chicago",
    "state_id": "AZ",
    "state_name": "Arizona",
    "zip": 19016
  },
  {
    "name": "Emily Taylor",
    "address": "9871 2nd St",
    "city": "Chicago",
    "state_id": "NY",
    "state_name": "New York",
    "zip": 46449
  },
  {
    "name": "Emma Smith",
    "address": "5888 Washington Blvd",
    "city": "Philadelphia",
    "state_id": "CA",
    "state_name": "California",
    "zip": 38027
  },
  {
    "name": "Emma Brown",
    "address": "8874 2nd St",
    "city": "Houston",
    "state_id": "TX",
    "state_name": "Texas",
    "zip": 32974
  },
  {
    "name": "Michael Hall",
    "address": "2327 Washington Blvd",
    "city": "San Diego",
    "state_id": "IL",
    "state_name": "Illinois",
    "zip": 57116
  },
  {
    "name": "John Brown",
    "address": "7203 Pine Rd",
    "city": "Chicago",
    "state_id": "IL",
    "state_name": "Illinois",
    "zip": 68536
  },
  {
    "name": "Michael Lee",
    "address": "7437 Cedar St",
    "city": "Dallas",
    "state_id": "CA",
    "state_name": "California",
    "zip": 22638
  },
  {
    "name": "Michael Anderson",
    "address": "316 Pine Rd",
    "city": "Houston",
    "state_id": "IL",
    "state_name": "Illinois",
    "zip": 36558
  },
  {
    "name": "Jane Lee",
    "address": "4025 Elm St",
    "city": "Chicago",
    "state_id": "NY",
    "state_name": "New York",
    "zip": 64330
  },
  {
    "name": "Emily Walker",
    "address": "9099 Oak Ave",
    "city": "Philadelphia",
    "state_id": "TX",
    "state_name": "Texas",
    "zip": 86497
  },
  {
    "name": "Emily Anderson",
    "address": "8309 Washington Blvd",
    "city": "Phoenix",
    "state_id": "NY",
    "state_name": "New York",
    "zip": 90620
  },
  {
    "name": "Chris Walker",
    "address": "5645 Main St",
    "city": "New York",
    "state_id": "NY",
    "state_name": "New York",
    "zip": 82611
  },
  {
    "name": "Jane Taylor",
    "address": "3004 Cedar St",
    "city": "Houston",
    "state_id": "NY",
    "state_name": "New York",
    "zip": 18498
  },
  {
    "name": "Jane Smith",
    "address": "4186 Oak Ave",
    "city": "Chicago",
    "state_id": "AZ",
    "state_name": "Arizona",
    "zip": 29879
  },
  {
    "name": "David Brown",
    "address": "3822 2nd St",
    "city": "Chicago",
    "state_id": "IL",
    "state_name": "Illinois",
    "zip": 63557
  },
  {
    "name": "Michael Smith",
    "address": "2178 Washington Blvd",
    "city": "Houston",
    "state_id": "IL",
    "state_name": "Illinois",
    "zip": 99046
  },
  {
    "name": "Michael Johnson",
    "address": "3982 Cedar St",
    "city": "Los Angeles",
    "state_id": "IL",
    "state_name": "Illinois",
    "zip": 14617
  },
  {
    "name": "Michael Brown",
    "address": "7877 Elm St",
    "city": "Philadelphia",
    "state_id": "TX",
    "state_name": "Texas",
    "zip": 87698
  },
  {
    "name": "Emma Walker",
    "address": "3736 2nd St",
    "city": "Phoenix",
    "state_id": "PA",
    "state_name": "Pennsylvania",
    "zip": 13583
  },
  {
    "name": "Jane Hall",
    "address": "9868 Elm St",
    "city": "Houston",
    "state_id": "NY",
    "state_name": "New York",
    "zip": 22695
  },
  {
    "name": "Michael Johnson",
    "address": "4222 Elm St",
    "city": "Chicago",
    "state_id": "NY",
    "state_name": "New York",
    "zip": 37772
  },
  {
    "name": "Chris Anderson",
    "address": "694 2nd St",
    "city": "Dallas",
    "state_id": "AZ",
    "state_name": "Arizona",
    "zip": 31727
  },
  {
    "name": "Emily Anderson",
    "address": "215 Main St",
    "city": "Chicago",
    "state_id": "NY",
    "state_name": "New York",
    "zip": 57378
  },
  {
    "name": "Emma Hall",
    "address": "5718 Washington Blvd",
    "city": "Philadelphia",
    "state_id": "PA",
    "state_name": "Pennsylvania",
    "zip": 52395
  },
  {
    "name": "Emma Lee",
    "address": "5655 Main St",
    "city": "New York",
    "state_id": "AZ",
    "state_name": "Arizona",
    "zip": 68334
  },
  {
    "name": "Emily Lee",
    "address": "5070 Elm St",
    "city": "Houston",
    "state_id": "NY",
    "state_name": "New York",
    "zip": 94502
  },
  {
    "name": "John Lee",
    "address": "2555 Oak Ave",
    "city": "Phoenix",
    "state_id": "NY",
    "state_name": "New York",
    "zip": 87724
  },
  {
    "name": "Jane Taylor",
    "address": "4754 2nd St",
    "city": "San Diego",
    "state_id": "CA",
    "state_name": "California",
    "zip": 34971
  },
  {
    "name": "Michael Walker",
    "address": "2519 Oak Ave",
    "city": "Philadelphia",
    "state_id": "TX",
    "state_name": "Texas",
    "zip": 11510
  },
  {
    "name": "Olivia Hall",
    "address": "2143 Washington Blvd",
    "city": "Phoenix",
    "state_id": "PA",
    "state_name": "Pennsylvania",
    "zip": 71452
  },
  {
    "name": "John Walker",
    "address": "380 Main St",
    "city": "Los Angeles",
    "state_id": "TX",
    "state_name": "Texas",
    "zip": 87961
  },
  {
    "name": "Emma Anderson",
    "address": "4808 Elm St",
    "city": "Chicago",
    "state_id": "AZ",
    "state_name": "Arizona",
    "zip": 43557
  },
  {
    "name": "David Anderson",
    "address": "9150 Oak Ave",
    "city": "Los Angeles",
    "state_id": "CA",
    "state_name": "California",
    "zip": 68551
  },
  {
    "name": "Olivia Brown",
    "address": "1783 Oak Ave",
    "city": "Los Angeles",
    "state_id": "IL",
    "state_name": "Illinois",
    "zip": 53973
  },
  {
    "name": "David Brown",
    "address": "873 Elm St",
    "city": "Phoenix",
    "state_id": "NY",
    "state_name": "New York",
    "zip": 27372
  },
  {
    "name": "John Hall",
    "address": "4851 Pine Rd",
    "city": "Phoenix",
    "state_id": "PA",
    "state_name": "Pennsylvania",
    "zip": 64598
  },
  {
    "name": "David Anderson",
    "address": "6031 Washington Blvd",
    "city": "San Diego",
    "state_id": "PA",
    "state_name": "Pennsylvania",
    "zip": 23467
  },
  {
    "name": "Jane Hall",
    "address": "392 Cedar St",
    "city": "Chicago",
    "state_id": "TX",
    "state_name": "Texas",
    "zip": 74281
  },
  {
    "name": "Jane Smith",
    "address": "6169 Maple Dr",
    "city": "Chicago",
    "state_id": "NY",
    "state_name": "New York",
    "zip": 35618
  },
  {
    "name": "Chris Brown",
    "address": "9996 2nd St",
    "city": "San Diego",
    "state_id": "PA",
    "state_name": "Pennsylvania",
    "zip": 75981
  },
  {
    "name": "David Hall",
    "address": "5204 Washington Blvd",
    "city": "Chicago",
    "state_id": "AZ",
    "state_name": "Arizona",
    "zip": 45394
  },
  {
    "name": "David Johnson",
    "address": "5111 Cedar St",
    "city": "Philadelphia",
    "state_id": "CA",
    "state_name": "California",
    "zip": 94632
  },
  {
    "name": "Olivia Hall",
    "address": "1308 Washington Blvd",
    "city": "Houston",
    "state_id": "IL",
    "state_name": "Illinois",
    "zip": 19168
  },
  {
    "name": "Chris Johnson",
    "address": "5503 Oak Ave",
    "city": "Dallas",
    "state_id": "CA",
    "state_name": "California",
    "zip": 16583
  },
  {
    "name": "Chris Johnson",
    "address": "9890 Oak Ave",
    "city": "San Diego",
    "state_id": "IL",
    "state_name": "Illinois",
    "zip": 19418
  },
  {
    "name": "Emily Anderson",
    "address": "6875 Washington Blvd",
    "city": "New York",
    "state_id": "NY",
    "state_name": "New York",
    "zip": 27856
  },
  {
    "name": "Olivia Taylor",
    "address": "4150 Maple Dr",
    "city": "Los Angeles",
    "state_id": "TX",
    "state_name": "Texas",
    "zip": 16862
  },
  {
    "name": "John Brown",
    "address": "108 Main St",
    "city": "San Diego",
    "state_id": "IL",
    "state_name": "Illinois",
    "zip": 59211
  },
  {
    "name": "John Brown",
    "address": "9750 Washington Blvd",
    "city": "Houston",
    "state_id": "CA",
    "state_name": "California",
    "zip": 79522
  },
  {
    "name": "Michael Lee",
    "address": "5864 Elm St",
    "city": "New York",
    "state_id": "AZ",
    "state_name": "Arizona",
    "zip": 39597
  },
  {
    "name": "David Walker",
    "address": "4053 Maple Dr",
    "city": "Houston",
    "state_id": "PA",
    "state_name": "Pennsylvania",
    "zip": 37973
  },
  {
    "name": "Emily Smith",
    "address": "7658 Elm St",
    "city": "Phoenix",
    "state_id": "PA",
    "state_name": "Pennsylvania",
    "zip": 36939
  },
  {
    "name": "Michael Smith",
    "address": "4527 Elm St",
    "city": "Los Angeles",
    "state_id": "PA",
    "state_name": "Pennsylvania",
    "zip": 24320
  },
  {
    "name": "Emily Johnson",
    "address": "2100 Cedar St",
    "city": "Phoenix",
    "state_id": "CA",
    "state_name": "California",
    "zip": 16031
  },
  {
    "name": "John Brown",
    "address": "6209 Cedar St",
    "city": "Philadelphia",
    "state_id": "PA",
    "state_name": "Pennsylvania",
    "zip": 94118
  },
  {
    "name": "Olivia Hall",
    "address": "2562 Maple Dr",
    "city": "New York",
    "state_id": "NY",
    "state_name": "New York",
    "zip": 77661
  },
  {
    "name": "Emma Hall",
    "address": "4690 Cedar St",
    "city": "Philadelphia",
    "state_id": "NY",
    "state_name": "New York",
    "zip": 59650
  },
  {
    "name": "Emily Walker",
    "address": "6283 2nd St",
    "city": "Houston",
    "state_id": "IL",
    "state_name": "Illinois",
    "zip": 28524
  },
  {
    "name": "Emma Taylor",
    "address": "4741 Cedar St",
    "city": "New York",
    "state_id": "NY",
    "state_name": "New York",
    "zip": 96012
  },
  {
    "name": "David Hall",
    "address": "3730 Pine Rd",
    "city": "San Diego",
    "state_id": "CA",
    "state_name": "California",
    "zip": 51298
  },
  {
    "name": "Emily Smith",
    "address": "9755 Maple Dr",
    "city": "Dallas",
    "state_id": "NY",
    "state_name": "New York",
    "zip": 40092
  },
  {
    "name": "Emily Taylor",
    "address": "990 2nd St",
    "city": "Houston",
    "state_id": "AZ",
    "state_name": "Arizona",
    "zip": 87434
  },
  {
    "name": "Jane Johnson",
    "address": "2605 Washington Blvd",
    "city": "New York",
    "state_id": "CA",
    "state_name": "California",
    "zip": 63452
  },
  {
    "name": "Emma Walker",
    "address": "2138 Elm St",
    "city": "Chicago",
    "state_id": "NY",
    "state_name": "New York",
    "zip": 22040
  },
  {
    "name": "David Johnson",
    "address": "8757 Washington Blvd",
    "city": "San Diego",
    "state_id": "CA",
    "state_name": "California",
    "zip": 96867
  },
  {
    "name": "John Lee",
    "address": "7153 Main St",
    "city": "Los Angeles",
    "state_id": "IL",
    "state_name": "Illinois",
    "zip": 91296
  },
  {
    "name": "Emily Hall",
    "address": "2075 Washington Blvd",
    "city": "San Diego",
    "state_id": "IL",
    "state_name": "Illinois",
    "zip": 86469
  },
  {
    "name": "Olivia Lee",
    "address": "8074 Cedar St",
    "city": "Phoenix",
    "state_id": "IL",
    "state_name": "Illinois",
    "zip": 44817
  },
  {
    "name": "Chris Smith",
    "address": "6661 Maple Dr",
    "city": "Chicago",
    "state_id": "AZ",
    "state_name": "Arizona",
    "zip": 32542
  },
  {
    "name": "Olivia Hall",
    "address": "2836 Pine Rd",
    "city": "Houston",
    "state_id": "PA",
    "state_name": "Pennsylvania",
    "zip": 80581
  },
  {
    "name": "David Hall",
    "address": "2065 Main St",
    "city": "Philadelphia",
    "state_id": "AZ",
    "state_name": "Arizona",
    "zip": 23891
  },
  {
    "name": "Olivia Hall",
    "address": "7163 Cedar St",
    "city": "San Diego",
    "state_id": "IL",
    "state_name": "Illinois",
    "zip": 71619
  },
  {
    "name": "Jane Anderson",
    "address": "1742 Pine Rd",
    "city": "Philadelphia",
    "state_id": "CA",
    "state_name": "California",
    "zip": 81302
  },
  {
    "name": "Olivia Smith",
    "address": "5109 Cedar St",
    "city": "Houston",
    "state_id": "NY",
    "state_name": "New York",
    "zip": 62433
  },
  {
    "name": "Emma Walker",
    "address": "3731 Washington Blvd",
    "city": "New York",
    "state_id": "NY",
    "state_name": "New York",
    "zip": 53177
  },
  {
    "name": "David Hall",
    "address": "2023 2nd St",
    "city": "Houston",
    "state_id": "TX",
    "state_name": "Texas",
    "zip": 58901
  },
  {
    "name": "Emily Anderson",
    "address": "1826 Cedar St",
    "city": "Houston",
    "state_id": "NY",
    "state_name": "New York",
    "zip": 15165
  },
  {
    "name": "David Taylor",
    "address": "9327 Washington Blvd",
    "city": "Philadelphia",
    "state_id": "AZ",
    "state_name": "Arizona",
    "zip": 66173
  },
  {
    "name": "Chris Anderson",
    "address": "4760 Pine Rd",
    "city": "New York",
    "state_id": "IL",
    "state_name": "Illinois",
    "zip": 94026
  },
  {
    "name": "Michael Taylor",
    "address": "3571 Maple Dr",
    "city": "Houston",
    "state_id": "NY",
    "state_name": "New York",
    "zip": 21105
  },
  {
    "name": "Emily Johnson",
    "address": "699 Main St",
    "city": "Chicago",
    "state_id": "NY",
    "state_name": "New York",
    "zip": 96174
  },
  {
    "name": "Emily Lee",
    "address": "6670 Maple Dr",
    "city": "Houston",
    "state_id": "CA",
    "state_name": "California",
    "zip": 68708
  },
  {
    "name": "John Hall",
    "address": "2348 Oak Ave",
    "city": "Houston",
    "state_id": "AZ",
    "state_name": "Arizona",
    "zip": 55592
  },
  {
    "name": "John Hall",
    "address": "9393 Main St",
    "city": "Chicago",
    "state_id": "NY",
    "state_name": "New York",
    "zip": 80858
  },
  {
    "name": "Olivia Smith",
    "address": "4812 Pine Rd",
    "city": "Philadelphia",
    "state_id": "CA",
    "state_name": "California",
    "zip": 24885
  },
  {
    "name": "Michael Brown",
    "address": "402 Washington Blvd",
    "city": "San Diego",
    "state_id": "CA",
    "state_name": "California",
    "zip": 61884
  },
  {
    "name": "John Johnson",
    "address": "7529 2nd St",
    "city": "New York",
    "state_id": "IL",
    "state_name": "Illinois",
    "zip": 22272
  },
  {
    "name": "Olivia Walker",
    "address": "9263 Oak Ave",
    "city": "Houston",
    "state_id": "AZ",
    "state_name": "Arizona",
    "zip": 41852
  },
  {
    "name": "Chris Taylor",
    "address": "2260 Pine Rd",
    "city": "Los Angeles",
    "state_id": "AZ",
    "state_name": "Arizona",
    "zip": 40115
  },
  {
    "name": "Michael Johnson",
    "address": "4703 2nd St",
    "city": "San Diego",
    "state_id": "AZ",
    "state_name": "Arizona",
    "zip": 78621
  },
  {
    "name": "David Anderson",
    "address": "2681 Cedar St",
    "city": "Phoenix",
    "state_id": "NY",
    "state_name": "New York",
    "zip": 65224
  },
  {
    "name": "David Taylor",
    "address": "2812 Washington Blvd",
    "city": "New York",
    "state_id": "IL",
    "state_name": "Illinois",
    "zip": 73354
  },
  {
    "name": "Chris Johnson",
    "address": "4276 Cedar St",
    "city": "Houston",
    "state_id": "IL",
    "state_name": "Illinois",
    "zip": 71680
  },
  {
    "name": "John Hall",
    "address": "2279 Washington Blvd",
    "city": "Houston",
    "state_id": "IL",
    "state_name": "Illinois",
    "zip": 98414
  },
  {
    "name": "Emma Anderson",
    "address": "8934 Washington Blvd",
    "city": "San Diego",
    "state_id": "PA",
    "state_name": "Pennsylvania",
    "zip": 63761
  },
  {
    "name": "Emma Anderson",
    "address": "2807 Main St",
    "city": "Houston",
    "state_id": "PA",
    "state_name": "Pennsylvania",
    "zip": 59713
  },
  {
    "name": "Michael Hall",
    "address": "4657 Cedar St",
    "city": "San Diego",
    "state_id": "CA",
    "state_name": "California",
    "zip": 81333
  },
  {
    "name": "John Taylor",
    "address": "1123 Main St",
    "city": "Los Angeles",
    "state_id": "TX",
    "state_name": "Texas",
    "zip": 23880
  },
  {
    "name": "David Smith",
    "address": "7686 Oak Ave",
    "city": "San Diego",
    "state_id": "NY",
    "state_name": "New York",
    "zip": 83722
  },
  {
    "name": "Emily Taylor",
    "address": "2084 Oak Ave",
    "city": "Phoenix",
    "state_id": "TX",
    "state_name": "Texas",
    "zip": 58175
  },
  {
    "name": "David Smith",
    "address": "412 Main St",
    "city": "Chicago",
    "state_id": "CA",
    "state_name": "California",
    "zip": 69399
  },
  {
    "name": "David Hall",
    "address": "9024 Washington Blvd",
    "city": "Dallas",
    "state_id": "PA",
    "state_name": "Pennsylvania",
    "zip": 54683
  },
  {
    "name": "David Taylor",
    "address": "3357 2nd St",
    "city": "New York",
    "state_id": "CA",
    "state_name": "California",
    "zip": 61635
  },
  {
    "name": "Michael Walker",
    "address": "5313 2nd St",
    "city": "Chicago",
    "state_id": "IL",
    "state_name": "Illinois",
    "zip": 32895
  },
  {
    "name": "John Walker",
    "address": "7430 Pine Rd",
    "city": "New York",
    "state_id": "TX",
    "state_name": "Texas",
    "zip": 76444
  },
  {
    "name": "Olivia Taylor",
    "address": "7076 Cedar St",
    "city": "Phoenix",
    "state_id": "IL",
    "state_name": "Illinois",
    "zip": 58765
  },
  {
    "name": "Emma Anderson",
    "address": "8483 2nd St",
    "city": "Dallas",
    "state_id": "AZ",
    "state_name": "Arizona",
    "zip": 36590
  },
  {
    "name": "Chris Anderson",
    "address": "7867 Elm St",
    "city": "Los Angeles",
    "state_id": "NY",
    "state_name": "New York",
    "zip": 79776
  },
  {
    "name": "Jane Hall",
    "address": "710 Elm St",
    "city": "Phoenix",
    "state_id": "NY",
    "state_name": "New York",
    "zip": 32610
  },
  {
    "name": "Emily Hall",
    "address": "8366 2nd St",
    "city": "Chicago",
    "state_id": "AZ",
    "state_name": "Arizona",
    "zip": 77814
  },
  {
    "name": "Jane Anderson",
    "address": "8273 Oak Ave",
    "city": "San Diego",
    "state_id": "NY",
    "state_name": "New York",
    "zip": 44397
  },
  {
    "name": "John Lee",
    "address": "9335 Elm St",
    "city": "Phoenix",
    "state_id": "TX",
    "state_name": "Texas",
    "zip": 76442
  },
  {
    "name": "Emma Smith",
    "address": "8996 Oak Ave",
    "city": "Los Angeles",
    "state_id": "PA",
    "state_name": "Pennsylvania",
    "zip": 12555
  },
  {
    "name": "John Lee",
    "address": "3324 Elm St",
    "city": "San Diego",
    "state_id": "AZ",
    "state_name": "Arizona",
    "zip": 74080
  },
  {
    "name": "Emily Anderson",
    "address": "6655 Cedar St",
    "city": "Houston",
    "state_id": "IL",
    "state_name": "Illinois",
    "zip": 38846
  },
  {
    "name": "John Lee",
    "address": "9035 Maple Dr",
    "city": "New York",
    "state_id": "IL",
    "state_name": "Illinois",
    "zip": 82220
  },
  {
    "name": "Olivia Smith",
    "address": "9186 Oak Ave",
    "city": "Los Angeles",
    "state_id": "IL",
    "state_name": "Illinois",
    "zip": 99864
  },
  {
    "name": "David Lee",
    "address": "7457 Maple Dr",
    "city": "Houston",
    "state_id": "TX",
    "state_name": "Texas",
    "zip": 83738
  },
  {
    "name": "Chris Hall",
    "address": "7592 Elm St",
    "city": "Los Angeles",
    "state_id": "AZ",
    "state_name": "Arizona",
    "zip": 10964
  },
  {
    "name": "Emily Taylor",
    "address": "4457 Elm St",
    "city": "Chicago",
    "state_id": "PA",
    "state_name": "Pennsylvania",
    "zip": 69900
  },
  {
    "name": "Olivia Walker",
    "address": "6159 Washington Blvd",
    "city": "Philadelphia",
    "state_id": "TX",
    "state_name": "Texas",
    "zip": 33180
  },
  {
    "name": "Jane Smith",
    "address": "6121 Elm St",
    "city": "Dallas",
    "state_id": "NY",
    "state_name": "New York",
    "zip": 95064
  },
  {
    "name": "Emily Taylor",
    "address": "5126 Elm St",
    "city": "Dallas",
    "state_id": "CA",
    "state_name": "California",
    "zip": 10392
  },
  {
    "name": "Chris Anderson",
    "address": "5067 Washington Blvd",
    "city": "San Diego",
    "state_id": "CA",
    "state_name": "California",
    "zip": 69514
  },
  {
    "name": "Jane Brown",
    "address": "7616 Oak Ave",
    "city": "Phoenix",
    "state_id": "NY",
    "state_name": "New York",
    "zip": 49038
  },
  {
    "name": "Emma Lee",
    "address": "7011 Elm St",
    "city": "Chicago",
    "state_id": "NY",
    "state_name": "New York",
    "zip": 60077
  },
  {
    "name": "David Johnson",
    "address": "354 Cedar St",
    "city": "Los Angeles",
    "state_id": "NY",
    "state_name": "New York",
    "zip": 48119
  }
]